IRIDIUM 119             
1 42959U 17061E   24182.46447385  .00000112  00000+0  33040-4 0  9999
2 42959  86.3977 324.7643 0002129 101.2313 258.9122 14.34218691352081
IRIDIUM 107             
1 42960U 17061F   24182.48350242 -.00000013  00000+0 -11770-4 0  9996
2 42960  86.3976 324.7734 0002152  99.8684 260.2754 14.34217769352095
IRIDIUM 132             
1 42961U 17061G   24182.42007704  .00000055  00000+0  12568-4 0  9993
2 42961  86.3978 324.7844 0002454  98.4704 261.6770 14.34218234352083
IRIDIUM 136             
1 42962U 17061H   24182.87039850  .00000384  00000+0  13018-3 0  9995
2 42962  86.3977 324.5993 0001970 100.7722 259.3696 14.34218438352161
IRIDIUM 139             
1 42963U 17061J   24182.87674438  .00000162  00000+0  50898-4 0  9995
2 42963  86.3981 324.6472 0002480 101.4239 258.7235 14.34216664352170
IRIDIUM 125             
1 42964U 17061K   24182.86405723  .00000226  00000+0  73553-4 0  9998
2 42964  86.3980 324.7003 0002120 107.2857 252.8571 14.34217652352189
IRIDIUM 135             
1 43070U 17083A   24182.76841495  .00000195  00000+0  62505-4 0  9990
2 43070  86.3961 261.3904 0002400  86.7061 273.4409 14.34218882341466
IRIDIUM 138             
1 43071U 17083B   24182.58447859  .00000435  00000+0  14809-3 0  9997
2 43071  86.3951 261.1829 0002109 102.2145 257.9287 14.34216835341426
